{"type":"FeatureCollection","name":"Montréal Best of the Best — Berri-UQAM few-hours loop","features":[{"type":"Feature","properties":{"kind":"route","name":"BEST OF MONTRÉAL — Berri-UQAM Loop","desc":"Approx. 8.5 km; allow roughly 3–4 hours with short stops."},"geometry":{"type":"LineString","coordinates":[[-73.56105,45.51525],[-73.55935,45.51605],[-73.56915,45.51855],[-73.57125,45.52045],[-73.57705,45.52125],[-73.57765,45.51915],[-73.57685,45.5166],[-73.57555,45.51385],[-73.5687,45.50895],[-73.56585,45.50745],[-73.56085,45.50605],[-73.55745,45.50455],[-73.5561,45.50375],[-73.55325,45.50535],[-73.553,45.50755],[-73.55115,45.5093],[-73.54915,45.51105],[-73.54725,45.51265],[-73.55055,45.5122],[-73.5543,45.5102],[-73.55775,45.5081],[-73.56015,45.5051],[-73.5638,45.5076],[-73.56185,45.51085],[-73.55895,45.51315],[-73.56105,45.51525]]}},{"type":"Feature","properties":{"kind":"start","idx":0,"name":"START / FINISH — Berri-UQAM","desc":"Best transit hub; start the loop here."},"geometry":{"type":"Point","coordinates":[-73.56105,45.51525]}},{"type":"Feature","properties":{"kind":"hotspot","idx":1,"name":"HOTSPOT 01 — Square Saint-Louis","desc":"Classic Montréal: colourful Victorian houses, trees, Plateau atmosphere."},"geometry":{"type":"Point","coordinates":[-73.56915,45.51855]}},{"type":"Feature","properties":{"kind":"hotspot","idx":2,"name":"HOTSPOT 02 — Rue Prince-Arthur","desc":"Pedestrian-scale Montréal streetscape and a quick gateway toward the Plateau."},"geometry":{"type":"Point","coordinates":[-73.57125,45.52045]}},{"type":"Feature","properties":{"kind":"hotspot","idx":3,"name":"HOTSPOT 03 — The Main / Saint-Laurent","desc":"Montréal's cultural spine; murals, storefronts and layered immigrant history."},"geometry":{"type":"Point","coordinates":[-73.57705,45.52125]}},{"type":"Feature","properties":{"kind":"hotspot","idx":4,"name":"HOTSPOT 04 — Place des Festivals","desc":"The visual heart of the Quartier des spectacles."},"geometry":{"type":"Point","coordinates":[-73.5687,45.50895]}},{"type":"Feature","properties":{"kind":"hotspot","idx":5,"name":"HOTSPOT 05 — Chinatown","desc":"Compact, atmospheric detour through Montréal's Chinatown."},"geometry":{"type":"Point","coordinates":[-73.56085,45.50605]}},{"type":"Feature","properties":{"kind":"hotspot","idx":6,"name":"HOTSPOT 06 — Place d'Armes","desc":"One of the strongest architectural views in the city."},"geometry":{"type":"Point","coordinates":[-73.55745,45.50455]}},{"type":"Feature","properties":{"kind":"hotspot","idx":7,"name":"HOTSPOT 07 — Notre-Dame Basilica","desc":"Montréal icon; exterior is on-route, interior if time allows."},"geometry":{"type":"Point","coordinates":[-73.5561,45.50375]}},{"type":"Feature","properties":{"kind":"hotspot","idx":8,"name":"HOTSPOT 08 — Place Jacques-Cartier","desc":"The classic public square of Old Montréal."},"geometry":{"type":"Point","coordinates":[-73.553,45.50755]}},{"type":"Feature","properties":{"kind":"hotspot","idx":9,"name":"HOTSPOT 09 — Marché Bonsecours","desc":"Landmark silver dome and one of Old Montréal's signature façades."},"geometry":{"type":"Point","coordinates":[-73.55115,45.5093]}},{"type":"Feature","properties":{"kind":"hotspot","idx":10,"name":"HOTSPOT 10 — Clock Tower / St. Lawrence","desc":"River panorama and a strong sense of Montréal as a port city."},"geometry":{"type":"Point","coordinates":[-73.54725,45.51265]}},{"type":"Feature","properties":{"kind":"hotspot","idx":11,"name":"HOTSPOT 11 — Old Port waterfront","desc":"Best section for a quick riverfront walk."},"geometry":{"type":"Point","coordinates":[-73.5543,45.5102]}},{"type":"Feature","properties":{"kind":"hotspot","idx":12,"name":"HOTSPOT 12 — Place d'Youville","desc":"Excellent historic streetscape; quieter counterpoint to Place Jacques-Cartier."},"geometry":{"type":"Point","coordinates":[-73.56015,45.5051]}},{"type":"Feature","properties":{"kind":"hotspot","idx":13,"name":"HOTSPOT 13 — Village / Sainte-Catherine Est","desc":"Distinctive central Montréal street life before returning to Berri-UQAM."},"geometry":{"type":"Point","coordinates":[-73.55895,45.51315]}}]}